[{"OBJECT_NAME":"OCO 2","OBJECT_ID":"2014-035A","EPOCH":"2026-03-03T03:06:16.610688","MEAN_MOTION":14.57084291,"ECCENTRICITY":0.0001143,"INCLINATION":98.2191,"RA_OF_ASC_NODE":5.0684,"ARG_OF_PERICENTER":91.4739,"MEAN_ANOMALY":268.6591,"EPHEMERIS_TYPE":0,"CLASSIFICATION_TYPE":"U","NORAD_CAT_ID":40059,"ELEMENT_SET_NO":999,"REV_AT_EPOCH":62060,"BSTAR":0.00015296,"MEAN_MOTION_DOT":6.43e-6,"MEAN_MOTION_DDOT":0},{"OBJECT_NAME":"BRITE-PL2 (HEWELIUSZ)","OBJECT_ID":"2014-049B","EPOCH":"2026-03-02T20:12:56.392704","MEAN_MOTION":14.94135381,"ECCENTRICITY":0.0015452,"INCLINATION":97.8979,"RA_OF_ASC_NODE":173.1336,"ARG_OF_PERICENTER":102.4479,"MEAN_ANOMALY":257.847,"EPHEMERIS_TYPE":0,"CLASSIFICATION_TYPE":"U","NORAD_CAT_ID":40119,"ELEMENT_SET_NO":999,"REV_AT_EPOCH":62556,"BSTAR":0.000294,"MEAN_MOTION_DOT":3.093e-5,"MEAN_MOTION_DDOT":0},{"OBJECT_NAME":"MMS 1","OBJECT_ID":"2015-011A","EPOCH":"2026-03-03T06:00:00.998784","MEAN_MOTION":0.2821253,"ECCENTRICITY":0.8416523,"INCLINATION":70.7146,"RA_OF_ASC_NODE":350.2382,"ARG_OF_PERICENTER":165.1307,"MEAN_ANOMALY":293.1842,"EPHEMERIS_TYPE":0,"CLASSIFICATION_TYPE":"U","NORAD_CAT_ID":40482,"ELEMENT_SET_NO":999,"REV_AT_EPOCH":133,"BSTAR":0,"MEAN_MOTION_DOT":-2.043e-5,"MEAN_MOTION_DDOT":0},{"OBJECT_NAME":"MMS 2","OBJECT_ID":"2015-011B","EPOCH":"2026-03-03T06:00:00.998784","MEAN_MOTION":0.28212557,"ECCENTRICITY":0.8417251,"INCLINATION":70.7148,"RA_OF_ASC_NODE":350.2403,"ARG_OF_PERICENTER":165.1368,"MEAN_ANOMALY":293.1676,"EPHEMERIS_TYPE":0,"CLASSIFICATION_TYPE":"U","NORAD_CAT_ID":40483,"ELEMENT_SET_NO":999,"REV_AT_EPOCH":133,"BSTAR":0,"MEAN_MOTION_DOT":-2.043e-5,"MEAN_MOTION_DDOT":0},{"OBJECT_NAME":"MMS 3","OBJECT_ID":"2015-011C","EPOCH":"2026-03-03T06:00:00.998784","MEAN_MOTION":0.28212523,"ECCENTRICITY":0.8416538,"INCLINATION":70.7172,"RA_OF_ASC_NODE":350.245,"ARG_OF_PERICENTER":165.1309,"MEAN_ANOMALY":293.1764,"EPHEMERIS_TYPE":0,"CLASSIFICATION_TYPE":"U","NORAD_CAT_ID":40484,"ELEMENT_SET_NO":999,"REV_AT_EPOCH":133,"BSTAR":0,"MEAN_MOTION_DOT":-2.043e-5,"MEAN_MOTION_DDOT":0},{"OBJECT_NAME":"MMS 4","OBJECT_ID":"2015-011D","EPOCH":"2026-03-03T06:00:00.998784","MEAN_MOTION":0.28199666,"ECCENTRICITY":0.8416127,"INCLINATION":70.7152,"RA_OF_ASC_NODE":350.2407,"ARG_OF_PERICENTER":165.1294,"MEAN_ANOMALY":293.1929,"EPHEMERIS_TYPE":0,"CLASSIFICATION_TYPE":"U","NORAD_CAT_ID":40485,"ELEMENT_SET_NO":999,"REV_AT_EPOCH":133,"BSTAR":0,"MEAN_MOTION_DOT":-2.044e-5,"MEAN_MOTION_DDOT":0},{"OBJECT_NAME":"ASTROSAT","OBJECT_ID":"2015-052A","EPOCH":"2026-03-03T03:04:54.464160","MEAN_MOTION":14.82275532,"ECCENTRICITY":0.0008471,"INCLINATION":5.9957,"RA_OF_ASC_NODE":198.6571,"ARG_OF_PERICENTER":317.595,"MEAN_ANOMALY":42.3524,"EPHEMERIS_TYPE":0,"CLASSIFICATION_TYPE":"U","NORAD_CAT_ID":40930,"ELEMENT_SET_NO":999,"REV_AT_EPOCH":56406,"BSTAR":0.00019911,"MEAN_MOTION_DOT":2.3e-5,"MEAN_MOTION_DDOT":0},{"OBJECT_NAME":"DAMPE","OBJECT_ID":"2015-078A","EPOCH":"2026-03-03T04:43:34.828896","MEAN_MOTION":15.30470881,"ECCENTRICITY":0.0013858,"INCLINATION":97.4575,"RA_OF_ASC_NODE":67.1561,"ARG_OF_PERICENTER":91.2156,"MEAN_ANOMALY":269.0672,"EPHEMERIS_TYPE":0,"CLASSIFICATION_TYPE":"U","NORAD_CAT_ID":41173,"ELEMENT_SET_NO":999,"REV_AT_EPOCH":56833,"BSTAR":7.3874e-5,"MEAN_MOTION_DOT":2.104e-5,"MEAN_MOTION_DDOT":0},{"OBJECT_NAME":"PISAT","OBJECT_ID":"2016-059B","EPOCH":"2026-03-02T22:40:07.171680","MEAN_MOTION":14.68753058,"ECCENTRICITY":0.0029,"INCLINATION":97.8188,"RA_OF_ASC_NODE":66.979,"ARG_OF_PERICENTER":182.128,"MEAN_ANOMALY":177.9807,"EPHEMERIS_TYPE":0,"CLASSIFICATION_TYPE":"U","NORAD_CAT_ID":41784,"ELEMENT_SET_NO":999,"REV_AT_EPOCH":50414,"BSTAR":0.0002293,"MEAN_MOTION_DOT":1.298e-5,"MEAN_MOTION_DDOT":0},{"OBJECT_NAME":"HXMT (HUIYAN)","OBJECT_ID":"2017-034A","EPOCH":"2026-03-03T04:41:02.063328","MEAN_MOTION":15.17359352,"ECCENTRICITY":0.00322,"INCLINATION":43.015,"RA_OF_ASC_NODE":52.7764,"ARG_OF_PERICENTER":196.0768,"MEAN_ANOMALY":163.9061,"EPHEMERIS_TYPE":0,"CLASSIFICATION_TYPE":"U","NORAD_CAT_ID":42758,"ELEMENT_SET_NO":999,"REV_AT_EPOCH":48155,"BSTAR":0.00031154,"MEAN_MOTION_DOT":6.179e-5,"MEAN_MOTION_DDOT":0},{"OBJECT_NAME":"FLYING LAPTOP","OBJECT_ID":"2017-042G","EPOCH":"2026-03-03T04:13:31.361088","MEAN_MOTION":15.00460179,"ECCENTRICITY":0.0018419,"INCLINATION":97.4247,"RA_OF_ASC_NODE":222.141,"ARG_OF_PERICENTER":116.4688,"MEAN_ANOMALY":243.8429,"EPHEMERIS_TYPE":0,"CLASSIFICATION_TYPE":"U","NORAD_CAT_ID":42831,"ELEMENT_SET_NO":999,"REV_AT_EPOCH":47055,"BSTAR":0.00021952,"MEAN_MOTION_DOT":2.715e-5,"MEAN_MOTION_DDOT":0},{"OBJECT_NAME":"ZHANGHENG 1-01 (CSES-1)","OBJECT_ID":"2018-015C","EPOCH":"2026-03-03T04:59:11.589792","MEAN_MOTION":15.20860252,"ECCENTRICITY":0.0014852,"INCLINATION":97.6736,"RA_OF_ASC_NODE":225.8188,"ARG_OF_PERICENTER":268.668,"MEAN_ANOMALY":91.2853,"EPHEMERIS_TYPE":0,"CLASSIFICATION_TYPE":"U","NORAD_CAT_ID":43194,"ELEMENT_SET_NO":999,"REV_AT_EPOCH":44853,"BSTAR":0.00054503,"MEAN_MOTION_DOT":0.00012008,"MEAN_MOTION_DDOT":0},{"OBJECT_NAME":"SALSAT","OBJECT_ID":"2020-068K","EPOCH":"2026-03-02T22:16:53.037696","MEAN_MOTION":15.28017587,"ECCENTRICITY":0.0008827,"INCLINATION":97.8846,"RA_OF_ASC_NODE":58.6665,"ARG_OF_PERICENTER":325.0587,"MEAN_ANOMALY":35.0071,"EPHEMERIS_TYPE":0,"CLASSIFICATION_TYPE":"U","NORAD_CAT_ID":46495,"ELEMENT_SET_NO":999,"REV_AT_EPOCH":29912,"BSTAR":0.00042811,"MEAN_MOTION_DOT":0.00011638,"MEAN_MOTION_DDOT":0},{"OBJECT_NAME":"IXPE","OBJECT_ID":"2021-121A","EPOCH":"2026-03-03T04:00:01.999584","MEAN_MOTION":15.09103147,"ECCENTRICITY":0.000708,"INCLINATION":0.2303,"RA_OF_ASC_NODE":38.4934,"ARG_OF_PERICENTER":275.0397,"MEAN_ANOMALY":14.8353,"EPHEMERIS_TYPE":0,"CLASSIFICATION_TYPE":"U","NORAD_CAT_ID":49954,"ELEMENT_SET_NO":999,"REV_AT_EPOCH":586,"BSTAR":0.00088711,"MEAN_MOTION_DOT":0.00015434,"MEAN_MOTION_DDOT":0}]
