OCO 2                   
1 40059U 14035A   26062.12935892  .00000643  00000+0  15296-3 0  9994
2 40059  98.2191   5.0684 0001143  91.4739 268.6591 14.57084291620607
BRITE-PL2 (HEWELIUSZ)   
1 40119U 14049B   26061.84231936  .00003093  00000+0  29400-3 0  9996
2 40119  97.8979 173.1336 0015452 102.4479 257.8470 14.94135381625560
MMS 1                   
1 40482U 15011A   26062.25001156 -.00002043  00000+0  00000+0 0  9990
2 40482  70.7146 350.2382 8416523 165.1307 293.1842  0.28212530  1339
MMS 2                   
1 40483U 15011B   26062.25001156 -.00002043  00000+0  00000+0 0  9991
2 40483  70.7148 350.2403 8417251 165.1368 293.1676  0.28212557  1336
MMS 3                   
1 40484U 15011C   26062.25001156 -.00002043  00000+0  00000+0 0  9992
2 40484  70.7172 350.2450 8416538 165.1309 293.1764  0.28212523  1339
MMS 4                   
1 40485U 15011D   26062.25001156 -.00002044  00000+0  00000+0 0  9994
2 40485  70.7152 350.2407 8416127 165.1294 293.1929  0.28199666  1332
ASTROSAT                
1 40930U 15052A   26062.12840815  .00002300  00000+0  19911-3 0  9992
2 40930   5.9957 198.6571 0008471 317.5950  42.3524 14.82275532564060
DAMPE                   
1 41173U 15078A   26062.19693089  .00002104  00000+0  73874-4 0  9997
2 41173  97.4575  67.1561 0013858  91.2156 269.0672 15.30470881568334
PISAT                   
1 41784U 16059B   26061.94452745  .00001298  00000+0  22930-3 0  9998
2 41784  97.8188  66.9790 0029000 182.1280 177.9807 14.68753058504147
HXMT (HUIYAN)           
1 42758U 17034A   26062.19516277  .00006179  00000+0  31154-3 0  9994
2 42758  43.0150  52.7764 0032200 196.0768 163.9061 15.17359352481556
FLYING LAPTOP           
1 42831U 17042G   26062.17605742  .00002715  00000+0  21952-3 0  9996
2 42831  97.4247 222.1410 0018419 116.4688 243.8429 15.00460179470558
ZHANGHENG 1-01 (CSES-1) 
1 43194U 18015C   26062.20777303  .00012008  00000+0  54503-3 0  9991
2 43194  97.6736 225.8188 0014852 268.6680  91.2853 15.20860252448534
SALSAT                  
1 46495U 20068K   26061.92839164  .00011638  00000+0  42811-3 0  9998
2 46495  97.8846  58.6665 0008827 325.0587  35.0071 15.28017587299126
IXPE                    
1 49954U 21121A   26062.16668981  .00015434  00000+0  88711-3 0  9993
2 49954   0.2303  38.4934 0007080 275.0397  14.8353 15.09103147  5864
